H1 CPF 01  gfz 2021 12 04 01  8381 terrasarx 
H2 0702601  6201 31698    2021 12 04 00 59 42 2021 12 09 00 00 42   120 1 1  0 0 0
H9
10 0 59555  42462.000000  0    -366148.699   6870449.341    355704.738
10 0 59555  42582.000000  0    -183320.209   6770600.379   1253943.963
10 0 59555  42702.000000  0       -101.520   6549194.488   2130106.312
10 0 59555  42822.000000  0     178212.442   6210127.003   2968763.351
10 0 59555  42942.000000  0     346499.251   5759460.066   3755151.245
10 0 59555  43062.000000  0     499936.911   5205309.193   4475435.399
10 0 59555  43182.000000  0     634123.429   4557687.741   5116961.266
10 0 59555  43302.000000  0     745184.857   3828311.003   5668473.456
10 0 59555  43422.000000  0     829871.133   3030377.533   6120308.785
10 0 59555  43542.000000  0     885635.668   2178322.369   6464561.271
10 0 59555  43662.000000  0     910697.594   1287550.490   6695214.410
10 0 59555  43782.000000  0     904086.341    374154.788   6808240.250
10 0 59555  43902.000000  0     865667.477   -545374.351   6801664.556
10 0 59555  44022.000000  0     796149.163  -1454445.795   6675600.585
10 0 59555  44142.000000  0     697069.091  -2336666.905   6432247.624
10 0 59555  44262.000000  0     570762.103  -3176139.664   6075855.764
10 0 59555  44382.000000  0     420308.744  -3957749.332   5612654.187
10 0 59555  44502.000000  0     249466.840  -4667437.644   5050746.978
10 0 59555  44622.000000  0      62587.185  -5292460.172   4399979.086
10 0 59555  44742.000000  0    -135486.465  -5821624.955   3671770.335
10 0 59555  44862.000000  0    -339531.669  -6245503.450   2878917.424
10 0 59555  44982.000000  0    -544072.096  -6556608.983   2035368.732
10 0 59555  45102.000000  0    -743509.738  -6749537.190   1155976.288
10 0 59555  45222.000000  0    -932262.360  -6821069.198    256229.184
10 0 59555  45342.000000  0   -1104902.604  -6770229.134   -648029.094
10 0 59555  45462.000000  0   -1256293.473  -6598294.857  -1540889.018
10 0 59555  45582.000000  0   -1381717.570  -6308763.803  -2406662.891
10 0 59555  45702.000000  0   -1476997.577  -5907275.531  -3230166.953
10 0 59555  45822.000000  0   -1538604.683  -5401492.024  -3996992.254
10 0 59555  45942.000000  0   -1563751.911  -4800938.936  -4693757.321
10 0 59555  46062.000000  0   -1550470.363  -4116813.982  -5308337.331
10 0 59555  46182.000000  0   -1497667.314  -3361768.224  -5830067.673
10 0 59555  46302.000000  0   -1405164.908  -2549664.729  -6249919.760
10 0 59555  46422.000000  0   -1273718.931  -1695319.065  -6560646.401
10 0 59555  46542.000000  0   -1105017.967   -814228.181  -6756895.127
10 0 59555  46662.000000  0    -901663.468     77707.797  -6835290.693
10 0 59555  46782.000000  0    -667129.894    964466.902  -6794486.047
10 0 59555  46902.000000  0    -405706.126   1830185.549  -6635182.588
10 0 59555  47022.000000  0    -122419.937   2659434.828  -6360119.513
10 0 59555  47142.000000  0     177054.978   3437490.381  -5974033.620
10 0 59555  47262.000000  0     486508.973   4150592.264  -5483586.216
10 0 59555  47382.000000  0     799319.843   4786188.435  -4897258.391
10 0 59555  47502.000000  0    1108588.609   5333160.773  -4225216.339
10 0 59555  47622.000000  0    1407285.825   5782028.176  -3479144.979
10 0 59555  47742.000000  0    1688404.892   6125121.158  -2672052.753
10 0 59555  47862.000000  0    1945119.302   6356725.175  -1818049.957
10 0 59555  47982.000000  0    2170940.395   6473188.083   -932102.738
10 0 59555  48102.000000  0    2359871.440   6472987.162    -29767.251
10 0 59555  48222.000000  0    2506553.656   6356753.548    873089.579
10 0 59555  48342.000000  0    2606400.576   6127253.587   1760576.430
10 0 59555  48462.000000  0    2655717.248   5789327.582   2617065.409
10 0 59555  48582.000000  0    2651801.558   5349787.456   3427475.073
10 0 59555  48702.000000  0    2593025.122   4817275.476   4177542.907
10 0 59555  48822.000000  0    2478890.893   4202087.851   4854082.408
10 0 59555  48942.000000  0    2310064.527   3515964.272   5445216.533
10 0 59555  49062.000000  0    2088382.476   2771855.613   5940581.621
10 0 59555  49182.000000  0    1816836.938   1983673.987   6331504.878
10 0 59555  49302.000000  0    1499535.665   1166027.220   6611151.587
10 0 59555  49422.000000  0    1141638.492    333944.438   6774637.487
10 0 59555  49542.000000  0     749272.695   -497399.500   6819107.966
10 0 59555  49662.000000  0     329427.934  -1312959.987   6743786.579
10 0 59555  49782.000000  0    -110168.472  -2098095.143   6549987.871
10 0 59555  49902.000000  0    -561193.801  -2838828.756   6241095.594
10 0 59555  50022.000000  0   -1014886.221  -3522100.002   5822505.535
10 0 59555  50142.000000  0   -1462211.895  -4135994.350   5301535.975
10 0 59555  50262.000000  0   -1894043.372  -4669955.359   4687308.397
10 0 59555  50382.000000  0   -2301346.346  -5114974.242   3990595.161
10 0 59555  50502.000000  0   -2675369.640  -5463751.449   3223633.973
10 0 59555  50622.000000  0   -3007832.818  -5710823.860   2399912.505
10 0 59555  50742.000000  0   -3291107.661  -5852656.168   1533929.463
10 0 59555  50862.000000  0   -3518389.713  -5887695.020    640934.989
10 0 59555  50982.000000  0   -3683855.356  -5816383.403   -263344.708
10 0 59555  51102.000000  0   -3782800.354  -5641135.016  -1162992.785
10 0 59555  51222.000000  0   -3811755.988  -5366268.206  -2042191.377
10 0 59555  51342.000000  0   -3768579.793  -4997901.127  -2885507.927
10 0 59555  51462.000000  0   -3652518.485  -4543811.499  -3678171.761
10 0 59555  51582.000000  0   -3464241.688  -4013265.649  -4406334.397
10 0 59555  51702.000000  0   -3205847.027  -3416822.401  -5057309.109
10 0 59555  51822.000000  0   -2880836.931  -2766116.204  -5619786.266
10 0 59555  51942.000000  0   -2494068.361  -2073625.084  -6084020.850
10 0 59555  52062.000000  0   -2051676.637  -1352428.791  -6441991.334
10 0 59555  52182.000000  0   -1560974.417   -615961.058  -6687527.003
10 0 59555  52302.000000  0   -1030329.584    122238.210  -6816402.394
10 0 59555  52422.000000  0    -469024.405    848766.145  -6826401.367
10 0 59555  52542.000000  0     112903.777   1550594.052  -6717351.188
10 0 59555  52662.000000  0     704836.481   2215294.604  -6491125.474
10 0 59555  52782.000000  0    1295763.540   2831257.932  -6151617.691
10 0 59555  52902.000000  0    1874483.911   3387892.595  -5704680.773
10 0 59555  53022.000000  0    2429814.134   3875807.877  -5158035.642
10 0 59555  53142.000000  0    2950802.210   4286974.911  -4521149.353
10 0 59555  53262.000000  0    3426943.227   4614865.165  -3805082.307
10 0 59555  53382.000000  0    3848392.529   4854561.788  -3022305.351
10 0 59555  53502.000000  0    4206172.557   5002840.831  -2186488.475
10 0 59555  53622.000000  0    4492366.271   5058219.296  -1312264.449
10 0 59555  53742.000000  0    4700294.317   5020970.665   -414971.929
10 0 59555  53862.000000  0    4824670.174   4893103.551    489619.285
10 0 59555  53982.000000  0    4861727.070   4678304.848   1385592.030
10 0 59555  54102.000000  0    4809316.486   4381850.929   2257168.916
10 0 59555  54222.000000  0    4666975.565   4010486.161   3088999.788
10 0 59555  54342.000000  0    4435957.854   3572271.130   3866440.730
10 0 59555  54462.000000  0    4119228.506   3076406.042   4575816.842
10 0 59555  54582.000000  0    3721426.663   2533034.933   5204664.696
10 0 59555  54702.000000  0    3248792.350   1953033.750   5741952.291
10 0 59555  54822.000000  0    2709061.920   1347789.187   6178267.756
10 0 59555  54942.000000  0    2111336.637    728971.976   6505978.324
10 0 59555  55062.000000  0    1465925.384    108311.152   6719356.685
10 0 59555  55182.000000  0     784164.554   -502626.765   6814676.701
10 0 59555  55302.000000  0      78217.492  -1092653.571   6790275.249
10 0 59555  55422.000000  0    -639142.809  -1651163.941   6646578.716
10 0 59555  55542.000000  0   -1354764.515  -2168326.003   6386095.179
10 0 59555  55662.000000  0   -2055356.283  -2635254.036   6013371.905
10 0 59555  55782.000000  0   -2727731.981  -3044161.691   5534922.534
10 0 59555  55902.000000  0   -3359061.291  -3388495.843   4959121.700
10 0 59555  56022.000000  0   -3937119.667  -3663045.395   4296063.125
10 0 59555  56142.000000  0   -4450529.227  -3864022.875   3557386.144
10 0 59555  56262.000000  0   -4888987.493  -3989118.071   2756074.149
10 0 59555  56382.000000  0   -5243480.107  -4037522.891   1906227.206
10 0 59555  56502.000000  0   -5506471.568  -4009925.619   1022810.055
10 0 59555  56622.000000  0   -5672067.954  -3908473.487    121382.341
10 0 59555  56742.000000  0   -5736148.220  -3736705.430   -782183.429
10 0 59555  56862.000000  0   -5696460.283  -3499456.399  -1671991.081
10 0 59555  56982.000000  0   -5552677.664  -3202734.468  -2532410.046
10 0 59555  57102.000000  0   -5306416.836  -2853575.745  -3348355.794
10 0 59555  57222.000000  0   -4961216.084  -2459881.157  -4105557.377
10 0 59555  57342.000000  0   -4522477.005  -2030239.125  -4790806.403
10 0 59555  57462.000000  0   -3997370.311  -1573739.193  -5392183.542
10 0 59555  57582.000000  0   -3394708.815  -1099780.279  -5899258.656
10 0 59555  57702.000000  0   -2724791.329   -617878.228  -6303261.332
10 0 59555  57822.000000  0   -1999221.245   -137477.128  -6597221.227
10 0 59555  57942.000000  0   -1230702.626    332231.914  -6776076.573
10 0 59555  58062.000000  0    -432819.748    782481.386  -6836751.008
10 0 59555  58182.000000  0     380197.961   1205086.915  -6778200.542
10 0 59555  58302.000000  0    1193722.431   1592591.324  -6601430.175
10 0 59555  58422.000000  0    1992984.780   1938393.903  -6309480.653
10 0 59555  58542.000000  0    2763338.359   2236861.885  -5907381.463
10 0 59555  58662.000000  0    3490523.722   2483422.018  -5402072.193
10 0 59555  58782.000000  0    4160930.333   2674631.261  -4802293.946
10 0 59555  58902.000000  0    4761854.204   2808226.257  -4118450.094
99
